DELTA 2 R/B(1)          
1 20453U 90008B   26044.15762871  .00068684  00000+0  89552-3 0  9997
2 20453  35.6054 335.4253 0091916  29.4618 331.1256 15.52564202922310
COSMOS 2058             
1 20465U 90010A   26044.47993351  .00004614  00000+0  27351-3 0  9999
2 20465  82.4653  71.2784 0011600  64.4023 295.8405 15.11095337938584
SL-14 R/B               
1 20466U 90010B   26044.13618189  .00000449  00000+0  51490-4 0  9990
2 20466  82.5022 290.4545 0020498  24.9097 335.3103 14.83547566924846
SL-14 R/B               
1 20511U 90018B   26044.53538898  .00000484  00000+0  57820-4 0  9993
2 20511  82.5180 245.6710 0016581 166.6751 193.4905 14.82118765919006
HST                     
1 20580U 90037B   26044.47072409  .00007576  00000+0  25278-3 0  9994
2 20580  28.4660 205.1646 0001527 191.5668 168.4892 15.29088605769608
SL-16 R/B               
1 20625U 90046B   26044.23785112  .00000337  00000+0  19853-3 0  9990
2 20625  71.0011 349.2645 0014990 333.7702  26.2660 14.15009037844938
COSMOS 2084             
1 20663U 90055A   26044.47931773  .00002800  00000+0  20691-3 0  9993
2 20663  62.7897  58.1406 0020872 184.7976 175.2928 15.05490445932671
SL-6 R/B(2)             
1 20666U 90055D   26044.22965686  .00002816  00000+0  21932-3 0  9995
2 20666  62.7847 337.0224 0021089 340.3168  19.7115 15.03469431934514
SL-8 R/B                
1 20775U 90078B   26044.10871965  .00015053  00000+0  44241-3 0  9999
2 20775  82.9021 273.4029 0366636  96.3520 267.9581 14.88241385805642
SL-8 R/B                
1 21088U 91006B   26044.51056272  .00000024  00000+0  81070-5 0  9995
2 21088  82.9441 188.0212 0023762 102.7406 326.3650 13.77492247760746
OKEAN-3                 
1 21397U 91039A   26044.34006258  .00004299  00000+0  30343-3 0  9997
2 21397  82.5178   0.4247 0016320  57.0244 303.2548 15.04609053861379
COSMOS 2151             
1 21422U 91042A   26044.46906058  .00001893  00000+0  14979-3 0  9994
2 21422  82.4957 107.0418 0013599 136.7052 223.5243 15.00012690859568
