CCSDS_OMM_VERS = 2.0
CREATION_DATE  = 
ORIGINATOR     = 

OBJECT_NAME    = DELTA 2 R/B(1)
OBJECT_ID      = 1990-008B
CENTER_NAME    = EARTH
REF_FRAME      = TEME
TIME_SYSTEM    = UTC
MEAN_ELEMENT_THEORY = SGP/SGP4

EPOCH          = 2026-02-13T03:46:59.120544
MEAN_MOTION    = 15.52564202
ECCENTRICITY   = .00919169
INCLINATION    = 35.6054
RA_OF_ASC_NODE = 335.4253
ARG_OF_PERICENTER = 29.4618
MEAN_ANOMALY   = 331.1256

EPHEMERIS_TYPE = 0
CLASSIFICATION_TYPE = U
NORAD_CAT_ID   = 20453
ELEMENT_SET_NO = 999
REV_AT_EPOCH   = 92231
BSTAR          = .89552388E-3
MEAN_MOTION_DOT = .68684E-3
MEAN_MOTION_DDOT = 0

CCSDS_OMM_VERS = 2.0
CREATION_DATE  = 
ORIGINATOR     = 

OBJECT_NAME    = COSMOS 2058
OBJECT_ID      = 1990-010A
CENTER_NAME    = EARTH
REF_FRAME      = TEME
TIME_SYSTEM    = UTC
MEAN_ELEMENT_THEORY = SGP/SGP4

EPOCH          = 2026-02-13T11:31:06.255264
MEAN_MOTION    = 15.11095337
ECCENTRICITY   = .00116
INCLINATION    = 82.4653
RA_OF_ASC_NODE = 71.2784
ARG_OF_PERICENTER = 64.4023
MEAN_ANOMALY   = 295.8405

EPHEMERIS_TYPE = 0
CLASSIFICATION_TYPE = U
NORAD_CAT_ID   = 20465
ELEMENT_SET_NO = 999
REV_AT_EPOCH   = 93858
BSTAR          = .27351E-3
MEAN_MOTION_DOT = .4614E-4
MEAN_MOTION_DDOT = 0

CCSDS_OMM_VERS = 2.0
CREATION_DATE  = 
ORIGINATOR     = 

OBJECT_NAME    = SL-14 R/B
OBJECT_ID      = 1990-010B
CENTER_NAME    = EARTH
REF_FRAME      = TEME
TIME_SYSTEM    = UTC
MEAN_ELEMENT_THEORY = SGP/SGP4

EPOCH          = 2026-02-13T03:16:06.115296
MEAN_MOTION    = 14.83547566
ECCENTRICITY   = .0020498
INCLINATION    = 82.5022
RA_OF_ASC_NODE = 290.4545
ARG_OF_PERICENTER = 24.9097
MEAN_ANOMALY   = 335.3103

EPHEMERIS_TYPE = 0
CLASSIFICATION_TYPE = U
NORAD_CAT_ID   = 20466
ELEMENT_SET_NO = 999
REV_AT_EPOCH   = 92484
BSTAR          = .5149016E-4
MEAN_MOTION_DOT = .449E-5
MEAN_MOTION_DDOT = 0

CCSDS_OMM_VERS = 2.0
CREATION_DATE  = 
ORIGINATOR     = 

OBJECT_NAME    = SL-14 R/B
OBJECT_ID      = 1990-018B
CENTER_NAME    = EARTH
REF_FRAME      = TEME
TIME_SYSTEM    = UTC
MEAN_ELEMENT_THEORY = SGP/SGP4

EPOCH          = 2026-02-13T12:50:57.607872
MEAN_MOTION    = 14.82118765
ECCENTRICITY   = .0016581
INCLINATION    = 82.5180
RA_OF_ASC_NODE = 245.6710
ARG_OF_PERICENTER = 166.6751
MEAN_ANOMALY   = 193.4905

EPHEMERIS_TYPE = 0
CLASSIFICATION_TYPE = U
NORAD_CAT_ID   = 20511
ELEMENT_SET_NO = 999
REV_AT_EPOCH   = 91900
BSTAR          = .5782E-4
MEAN_MOTION_DOT = .484E-5
MEAN_MOTION_DDOT = 0

CCSDS_OMM_VERS = 2.0
CREATION_DATE  = 
ORIGINATOR     = 

OBJECT_NAME    = HST
OBJECT_ID      = 1990-037B
CENTER_NAME    = EARTH
REF_FRAME      = TEME
TIME_SYSTEM    = UTC
MEAN_ELEMENT_THEORY = SGP/SGP4

EPOCH          = 2026-02-13T11:17:50.561376
MEAN_MOTION    = 15.29088605
ECCENTRICITY   = .0001527
INCLINATION    = 28.4660
RA_OF_ASC_NODE = 205.1646
ARG_OF_PERICENTER = 191.5668
MEAN_ANOMALY   = 168.4892

EPHEMERIS_TYPE = 0
CLASSIFICATION_TYPE = U
NORAD_CAT_ID   = 20580
ELEMENT_SET_NO = 999
REV_AT_EPOCH   = 76960
BSTAR          = .25278E-3
MEAN_MOTION_DOT = .7576E-4
MEAN_MOTION_DDOT = 0

CCSDS_OMM_VERS = 2.0
CREATION_DATE  = 
ORIGINATOR     = 

OBJECT_NAME    = SL-16 R/B
OBJECT_ID      = 1990-046B
CENTER_NAME    = EARTH
REF_FRAME      = TEME
TIME_SYSTEM    = UTC
MEAN_ELEMENT_THEORY = SGP/SGP4

EPOCH          = 2026-02-13T05:42:30.336768
MEAN_MOTION    = 14.15009037
ECCENTRICITY   = .001499
INCLINATION    = 71.0011
RA_OF_ASC_NODE = 349.2645
ARG_OF_PERICENTER = 333.7702
MEAN_ANOMALY   = 26.2660

EPHEMERIS_TYPE = 0
CLASSIFICATION_TYPE = U
NORAD_CAT_ID   = 20625
ELEMENT_SET_NO = 999
REV_AT_EPOCH   = 84493
BSTAR          = .19853E-3
MEAN_MOTION_DOT = .337E-5
MEAN_MOTION_DDOT = 0

CCSDS_OMM_VERS = 2.0
CREATION_DATE  = 
ORIGINATOR     = 

OBJECT_NAME    = COSMOS 2084
OBJECT_ID      = 1990-055A
CENTER_NAME    = EARTH
REF_FRAME      = TEME
TIME_SYSTEM    = UTC
MEAN_ELEMENT_THEORY = SGP/SGP4

EPOCH          = 2026-02-13T11:30:13.051872
MEAN_MOTION    = 15.05490445
ECCENTRICITY   = .0020872
INCLINATION    = 62.7897
RA_OF_ASC_NODE = 58.1406
ARG_OF_PERICENTER = 184.7976
MEAN_ANOMALY   = 175.2928

EPHEMERIS_TYPE = 0
CLASSIFICATION_TYPE = U
NORAD_CAT_ID   = 20663
ELEMENT_SET_NO = 999
REV_AT_EPOCH   = 93267
BSTAR          = .20691E-3
MEAN_MOTION_DOT = .28E-4
MEAN_MOTION_DDOT = 0

CCSDS_OMM_VERS = 2.0
CREATION_DATE  = 
ORIGINATOR     = 

OBJECT_NAME    = SL-6 R/B(2)
OBJECT_ID      = 1990-055D
CENTER_NAME    = EARTH
REF_FRAME      = TEME
TIME_SYSTEM    = UTC
MEAN_ELEMENT_THEORY = SGP/SGP4

EPOCH          = 2026-02-13T05:30:42.352704
MEAN_MOTION    = 15.03469431
ECCENTRICITY   = .0021089
INCLINATION    = 62.7847
RA_OF_ASC_NODE = 337.0224
ARG_OF_PERICENTER = 340.3168
MEAN_ANOMALY   = 19.7115

EPHEMERIS_TYPE = 0
CLASSIFICATION_TYPE = U
NORAD_CAT_ID   = 20666
ELEMENT_SET_NO = 999
REV_AT_EPOCH   = 93451
BSTAR          = .21932E-3
MEAN_MOTION_DOT = .2816E-4
MEAN_MOTION_DDOT = 0

CCSDS_OMM_VERS = 2.0
CREATION_DATE  = 
ORIGINATOR     = 

OBJECT_NAME    = SL-8 R/B
OBJECT_ID      = 1990-078B
CENTER_NAME    = EARTH
REF_FRAME      = TEME
TIME_SYSTEM    = UTC
MEAN_ELEMENT_THEORY = SGP/SGP4

EPOCH          = 2026-02-13T02:36:33.377760
MEAN_MOTION    = 14.88241385
ECCENTRICITY   = .03666361
INCLINATION    = 82.9021
RA_OF_ASC_NODE = 273.4029
ARG_OF_PERICENTER = 96.3520
MEAN_ANOMALY   = 267.9581

EPHEMERIS_TYPE = 0
CLASSIFICATION_TYPE = U
NORAD_CAT_ID   = 20775
ELEMENT_SET_NO = 999
REV_AT_EPOCH   = 80564
BSTAR          = .4424083E-3
MEAN_MOTION_DOT = .15053E-3
MEAN_MOTION_DDOT = 0

CCSDS_OMM_VERS = 2.0
CREATION_DATE  = 
ORIGINATOR     = 

OBJECT_NAME    = SL-8 R/B
OBJECT_ID      = 1991-006B
CENTER_NAME    = EARTH
REF_FRAME      = TEME
TIME_SYSTEM    = UTC
MEAN_ELEMENT_THEORY = SGP/SGP4

EPOCH          = 2026-02-13T12:15:12.619008
MEAN_MOTION    = 13.77492247
ECCENTRICITY   = .0023762
INCLINATION    = 82.9441
RA_OF_ASC_NODE = 188.0212
ARG_OF_PERICENTER = 102.7406
MEAN_ANOMALY   = 326.3650

EPHEMERIS_TYPE = 0
CLASSIFICATION_TYPE = U
NORAD_CAT_ID   = 21088
ELEMENT_SET_NO = 999
REV_AT_EPOCH   = 76074
BSTAR          = .8107E-5
MEAN_MOTION_DOT = .24E-6
MEAN_MOTION_DDOT = 0

CCSDS_OMM_VERS = 2.0
CREATION_DATE  = 
ORIGINATOR     = 

OBJECT_NAME    = OKEAN-3
OBJECT_ID      = 1991-039A
CENTER_NAME    = EARTH
REF_FRAME      = TEME
TIME_SYSTEM    = UTC
MEAN_ELEMENT_THEORY = SGP/SGP4

EPOCH          = 2026-02-13T08:09:41.406912
MEAN_MOTION    = 15.04609053
ECCENTRICITY   = .001632
INCLINATION    = 82.5178
RA_OF_ASC_NODE = 0.4247
ARG_OF_PERICENTER = 57.0244
MEAN_ANOMALY   = 303.2548

EPHEMERIS_TYPE = 0
CLASSIFICATION_TYPE = U
NORAD_CAT_ID   = 21397
ELEMENT_SET_NO = 999
REV_AT_EPOCH   = 86137
BSTAR          = .30343E-3
MEAN_MOTION_DOT = .4299E-4
MEAN_MOTION_DDOT = 0

CCSDS_OMM_VERS = 2.0
CREATION_DATE  = 
ORIGINATOR     = 

OBJECT_NAME    = COSMOS 2151
OBJECT_ID      = 1991-042A
CENTER_NAME    = EARTH
REF_FRAME      = TEME
TIME_SYSTEM    = UTC
MEAN_ELEMENT_THEORY = SGP/SGP4

EPOCH          = 2026-02-13T11:15:26.834112
MEAN_MOTION    = 15.00012690
ECCENTRICITY   = .0013599
INCLINATION    = 82.4957
RA_OF_ASC_NODE = 107.0418
ARG_OF_PERICENTER = 136.7052
MEAN_ANOMALY   = 223.5243

EPHEMERIS_TYPE = 0
CLASSIFICATION_TYPE = U
NORAD_CAT_ID   = 21422
ELEMENT_SET_NO = 999
REV_AT_EPOCH   = 85956
BSTAR          = .14979E-3
MEAN_MOTION_DOT = .1893E-4
MEAN_MOTION_DDOT = 0

